OBJECT_NAME,OBJECT_ID,EPOCH,MEAN_MOTION,ECCENTRICITY,INCLINATION,RA_OF_ASC_NODE,ARG_OF_PERICENTER,MEAN_ANOMALY,EPHEMERIS_TYPE,CLASSIFICATION_TYPE,NORAD_CAT_ID,ELEMENT_SET_NO,REV_AT_EPOCH,BSTAR,MEAN_MOTION_DOT,MEAN_MOTION_DDOT
GAOFEN-11 01,2018-063A,2026-06-15T05:50:07.014336,15.55241222,.00032826,97.1298,233.1278,6.5657,353.5640,0,U,43585,999,44004,.22118184E-3,.14871E-3,0
ICESAT-2,2018-070A,2026-06-15T07:43:09.414336,15.28254315,.00059415,92.0080,290.4747,110.6021,249.5866,0,U,43613,999,43217,.28112542E-3,.774E-4,0
HYSIS,2018-096A,2026-06-15T07:36:01.810368,14.78692102,.00018887,97.9847,233.0795,107.4574,252.6843,0,U,43719,999,40714,.9501961E-4,.645E-5,0
KAZSTSAT,2018-099AB,2026-06-15T00:42:15.766560,14.99860137,.00083924,97.4266,198.0558,75.4729,284.7426,0,U,43783,999,41098,.11510394E-3,.1371E-4,0
SAUDISAT 5A,2018-102A,2026-06-15T06:22:40.026720,15.28030585,.00109246,97.3072,227.8835,134.8961,225.3167,0,U,43831,999,41538,.17936521E-3,.4838E-4,0
SAUDISAT 5B,2018-102C,2026-06-15T06:50:16.077984,15.28288214,.00115863,97.3179,230.9685,137.2411,222.9732,0,U,43833,999,41550,.16806056E-3,.4565E-4,0
GAOFEN-10R,2019-066A,2026-06-15T07:58:16.120992,14.83056986,.000655,98.0497,119.8979,132.6529,227.5237,0,U,44622,999,36210,.12810025E-3,.988E-5,0
CARTOSAT-3,2019-081A,2026-06-15T05:56:07.425024,15.19271899,.00130463,97.4311,228.1451,155.1248,205.0618,0,U,44804,999,36317,.22915236E-3,.4775E-4,0
GAOFEN-12 01,2019-082A,2026-06-15T06:06:58.408416,14.80457156,.00023277,97.8100,172.6853,72.8194,287.3273,0,U,44819,999,35380,.50260395E-4,.334E-5,0
CSG-1,2019-092A,2026-06-15T07:06:20.579328,14.82151671,.00014545,97.8888,349.9260,89.3209,270.8171,0,U,44873,999,35119,.50854233E-4,.353E-5,0
NEMO-HD,2020-061F,2026-06-15T06:01:25.749408,15.44559184,.00023876,97.1923,228.2232,83.1968,276.9553,0,U,46277,999,32168,.19932075E-3,.9172E-4,0
SENTINEL-6A,2020-086A,2026-06-15T06:57:13.276800,12.80929979,.00079427,66.0393,138.9934,270.2644,89.7461,0,U,46984,999,26008,-.391919E-4,-.7E-6,0
CAS500-1,2021-022A,2026-06-15T06:51:30.807072,15.20189278,.00038739,97.3908,61.5782,311.6324,48.4579,0,U,47932,999,29047,.23292161E-3,.4977E-4,0
GAOFEN-12 02,2021-026A,2026-06-15T07:59:56.205888,14.80294826,.00035726,97.9928,164.5214,229.5081,130.5820,0,U,48079,999,28148,.46738247E-4,.303E-5,0
PLEIADES NEO 3,2021-034A,2026-06-15T07:04:22.636416,14.81670064,.00013449,97.8936,241.0883,87.3906,272.7461,0,U,48268,999,27737,.13050968E-3,.975E-5,0
PLEIADES NEO 4,2021-073E,2026-06-15T06:15:44.324352,14.81673969,.00013841,97.8943,241.0509,86.0899,274.0472,0,U,49070,999,26108,.18267973E-3,.1386E-4,0
LANDSAT 9,2021-088A,2026-06-15T03:16:26.262048,14.57095879,.00013609,98.2281,236.3387,86.2055,273.9299,0,U,49260,999,25070,.8389161E-4,.332E-5,0
CSG-2,2022-008A,2026-06-15T06:17:42.997344,14.82154320,.0001423,97.8878,349.8878,84.5853,275.5523,0,U,51444,999,23630,.42035846E-4,.282E-5,0
GAOFEN-12 03,2022-069A,2026-06-15T07:05:10.938336,14.80030208,.00019489,97.8289,54.2138,103.5827,256.5602,0,U,52912,999,21433,.48961396E-4,.32E-5,0
SWOT,2022-173A,2026-06-15T04:50:43.851552,14.00169397,.00002389,77.6107,37.9903,90.2626,269.8553,0,U,54754,999,17887,.29085621E-4,.4E-6,0
GAOFEN-12 04,2023-123A,2026-06-15T07:29:33.504576,14.80225454,.00017967,97.9126,84.3568,84.0777,276.0639,0,U,57654,999,15235,.11949758E-3,.857E-5,0
PARS 1,2024-039Q,2026-06-15T07:23:01.606272,15.45689718,.00114237,97.4818,147.1681,117.2933,242.9480,0,U,59065,999,12835,.18772059E-3,.8988E-4,0
RESURS-P 4,2024-061A,2026-06-15T07:17:30.894720,15.32121448,.00020336,97.2755,114.2354,128.6359,231.5065,0,U,59371,999,12347,.87678863E-4,.2643E-4,0
LEGION 1,2024-081A,2026-06-15T05:56:43.049472,15.16654797,.00097067,97.5022,244.1251,24.3666,335.8024,0,U,59625,999,11724,.16340449E-3,.3133E-4,0
LEGION 2,2024-081B,2026-06-15T06:39:50.947200,15.16634958,.00109391,97.5023,244.2523,350.7615,9.3415,0,U,59626,999,11725,.16415991E-3,.3146E-4,0
ALOS-4 (DAICHI-4),2024-123A,2026-06-15T06:21:18.263808,14.79473211,.00015768,97.9245,263.4655,97.9446,262.1945,0,U,60182,999,10559,.17758965E-3,.1275E-4,0
LEGION 3,2024-146A,2026-06-15T03:41:58.598880,15.16024498,.00073969,45.0023,41.4587,158.3724,201.7468,0,U,60452,999,10171,.15647739E-3,.2796E-4,0
LEGION 4,2024-146B,2026-06-15T05:21:17.518752,15.16016051,.00139252,44.9998,132.9984,298.1070,61.8401,0,U,60453,999,10057,.16828086E-3,.303E-4,0
SENTINEL-2C,2024-157A,2026-06-15T03:28:11.130528,14.30817304,.00010492,98.5692,240.9554,80.9357,279.1944,0,U,60989,999,9269,.51806695E-4,.92E-6,0
IONOSFERA-M 1,2024-199A,2026-06-15T07:04:47.285472,14.22753972,.00018965,98.7175,39.4871,112.8640,247.2739,0,U,61735,999,12743,.46779358E-4,.61E-6,0
