GAOFEN-11 01            
1 43585U 18063A   26166.24313674  .00014871  00000+0  22118-3 0  9991
2 43585  97.1298 233.1278 0003282   6.5657 353.5640 15.55241222440040
ICESAT-2                
1 43613U 18070A   26166.32163674  .00007740  00000+0  28113-3 0  9991
2 43613  92.0080 290.4747 0005941 110.6021 249.5866 15.28254315432174
HYSIS                   
1 43719U 18096A   26166.31668762  .00000645  00000+0  95020-4 0  9992
2 43719  97.9847 233.0795 0001888 107.4574 252.6843 14.78692102407148
KAZSTSAT                
1 43783U 18099AB  26166.02934915  .00001371  00000+0  11510-3 0  9998
2 43783  97.4266 198.0558 0008392  75.4729 284.7426 14.99860137410986
SAUDISAT 5A             
1 43831U 18102A   26166.26574105  .00004838  00000+0  17937-3 0  9994
2 43831  97.3072 227.8835 0010924 134.8961 225.3167 15.28030585415386
SAUDISAT 5B             
1 43833U 18102C   26166.28490831  .00004565  00000+0  16806-3 0  9992
2 43833  97.3179 230.9685 0011586 137.2411 222.9732 15.28288214415505
GAOFEN-10R              
1 44622U 19066A   26166.33213103  .00000988  00000+0  12810-3 0  9996
2 44622  98.0497 119.8979 0006550 132.6529 227.5237 14.83056986362105
CARTOSAT-3              
1 44804U 19081A   26166.24730816  .00004775  00000+0  22915-3 0  9995
2 44804  97.4311 228.1451 0013046 155.1248 205.0618 15.19271899363174
GAOFEN-12 01            
1 44819U 19082A   26166.25484269  .00000334  00000+0  50260-4 0  9993
2 44819  97.8100 172.6853 0002327  72.8194 287.3273 14.80457156353802
CSG-1                   
1 44873U 19092A   26166.29607152  .00000353  00000+0  50854-4 0  9996
2 44873  97.8888 349.9260 0001454  89.3209 270.8171 14.82151671351195
NEMO-HD                 
1 46277U 20061F   26166.25099247  .00009172  00000+0  19932-3 0  9999
2 46277  97.1923 228.2232 0002387  83.1968 276.9553 15.44559184321688
SENTINEL-6A             
1 46984U 20086A   26166.28973700 -.00000070  00000+0 -39192-4 0  9990
2 46984  66.0393 138.9934 0007942 270.2644  89.7461 12.80929979260081
CAS500-1                
1 47932U 21022A   26166.28577323  .00004977  00000+0  23292-3 0  9997
2 47932  97.3908  61.5782 0003873 311.6324  48.4579 15.20189278290475
GAOFEN-12 02            
1 48079U 21026A   26166.33328942  .00000303  00000+0  46738-4 0  9991
2 48079  97.9928 164.5214 0003572 229.5081 130.5820 14.80294826281487
PLEIADES NEO 3          
1 48268U 21034A   26166.29470644  .00000975  00000+0  13051-3 0  9998
2 48268  97.8936 241.0883 0001344  87.3906 272.7461 14.81670064277375
PLEIADES NEO 4          
1 49070U 21073E   26166.26092968  .00001386  00000+0  18268-3 0  9991
2 49070  97.8943 241.0509 0001384  86.0899 274.0472 14.81673969261086
LANDSAT 9               
1 49260U 21088A   26166.13641507  .00000332  00000+0  83892-4 0  9999
2 49260  98.2281 236.3387 0001360  86.2055 273.9299 14.57095879250701
CSG-2                   
1 51444U 22008A   26166.26230321  .00000282  00000+0  42036-4 0  9990
2 51444  97.8878 349.8878 0001423  84.5853 275.5523 14.82154320236300
GAOFEN-12 03            
1 52912U 22069A   26166.29526549  .00000320  00000+0  48961-4 0  9997
2 52912  97.8289  54.2138 0001948 103.5827 256.5602 14.80030208214330
SWOT                    
1 54754U 22173A   26166.20189643  .00000040  00000+0  29086-4 0  9996
2 54754  77.6107  37.9903 0000238  90.2626 269.8553 14.00169397178873
GAOFEN-12 04            
1 57654U 23123A   26166.31219334  .00000857  00000+0  11950-3 0  9993
2 57654  97.9126  84.3568 0001796  84.0777 276.0639 14.80225454152357
PARS 1                  
1 59065U 24039Q   26166.30765748  .00008988  00000+0  18772-3 0  9994
2 59065  97.4818 147.1681 0011423 117.2933 242.9480 15.45689718128351
RESURS-P 4              
1 59371U 24061A   26166.30382980  .00002643  00000+0  87679-4 0  9997
2 59371  97.2755 114.2354 0002033 128.6359 231.5065 15.32121448123474
LEGION 1                
1 59625U 24081A   26166.24772048  .00003133  00000+0  16340-3 0  9993
2 59625  97.5022 244.1251 0009706  24.3666 335.8024 15.16654797117243
LEGION 2                
1 59626U 24081B   26166.27767300  .00003146  00000+0  16416-3 0  9990
2 59626  97.5023 244.2523 0010939 350.7615   9.3415 15.16634958117253
ALOS-4 (DAICHI-4)       
1 60182U 24123A   26166.26479472  .00001275  00000+0  17759-3 0  9997
2 60182  97.9245 263.4655 0001576  97.9446 262.1945 14.79473211105592
LEGION 3                
1 60452U 24146A   26166.15415045  .00002796  00000+0  15648-3 0  9990
2 60452  45.0023  41.4587 0007396 158.3724 201.7468 15.16024498101715
LEGION 4                
1 60453U 24146B   26166.22311943  .00003030  00000+0  16828-3 0  9994
2 60453  44.9998 132.9984 0013925 298.1070  61.8401 15.16016051100575
SENTINEL-2C             
1 60989U 24157A   26166.14457327  .00000092  00000+0  51807-4 0  9990
2 60989  98.5692 240.9554 0001049  80.9357 279.1944 14.30817304 92691
IONOSFERA-M 1           
1 61735U 24199A   26166.29499173  .00000061  00000+0  46779-4 0  9995
2 61735  98.7175  39.4871 0001896 112.8640 247.2739 14.22753972127432
